      2.10          N: GNSS NAV DATA                        RINEX VERSION / TYPE
fic2rin                                 05/27/2020 00:17:16 PGM / RUN BY / DATE
                                                            END OF HEADER
 8 20  5 26 14  0  0.0-3.533763810992e-05-1.364242052659e-12 0.000000000000e+00
    9.200000000000e+01 4.715625000000e+01 4.560547107950e-09 8.151030865782e-01
    2.475455403328e-06 5.341608659364e-03 1.320615410805e-06 5.153671710968e+03
    2.232000000000e+05 2.793967723846e-08 2.004793939898e+00 0.000000000000e+00
    9.694831184062e-01 3.521562500000e+02-7.484116561781e-02-8.386777914392e-09
   -7.678891285216e-11 1.000000000000e+00 2.107000000000e+03 0.000000000000e+00
    2.400000000000e+00 0.000000000000e+00 5.122274160385e-09 9.200000000000e+01
    2.160000000000e+05 4.000000000000e+00
29 20  5 26 14  0  0.0-1.133074983954e-04-8.753886504564e-12 0.000000000000e+00
    5.000000000000e+01 2.071875000000e+01 4.129814880509e-09 1.045228387878e+00
    8.530914783478e-07 1.484742620960e-03 1.233071088791e-06 5.153581993103e+03
    2.232000000000e+05-1.303851604462e-08 2.089254862743e+00-6.891787052155e-08
    9.854646616330e-01 3.685000000000e+02 1.932287227268e+00-8.163554330520e-09
   -8.107480566251e-11 1.000000000000e+00 2.107000000000e+03 0.000000000000e+00
    2.400000000000e+00 0.000000000000e+00-9.778887033463e-09 5.000000000000e+01
    2.160000000000e+05 4.000000000000e+00
24 20  5 26 14  0  0.0-1.350045204163e-05-4.547473508865e-13 0.000000000000e+00
    4.800000000000e+01 6.968750000000e+00 5.210217026452e-09-1.241450997177e+00
    3.855675458908e-07 9.658322785981e-03 8.150935173035e-06 5.153649103165e+03
    2.232000000000e+05 2.328306436539e-07-1.352251018340e-01-1.117587089539e-08
    9.367846186452e-01 2.069062500000e+02 6.675932925574e-01-8.151768125291e-09
   -3.546576300567e-10 1.000000000000e+00 2.107000000000e+03 0.000000000000e+00
    2.400000000000e+00 0.000000000000e+00 2.793967723846e-09 4.800000000000e+01
    2.160000000000e+05 4.000000000000e+00
25 20  5 26 14  0  0.0 7.294118404388e-06 3.296918293927e-12 0.000000000000e+00
    2.600000000000e+01 1.240000000000e+02 4.218389998590e-09-3.092760295960e+00
    6.254762411118e-06 9.243284934200e-03 8.404254913330e-06 5.153552623749e+03
    2.232000000000e+05 2.793967723846e-08 9.737499208670e-01-2.272427082062e-07
    9.657120389027e-01 2.167500000000e+02 9.356256276486e-01-7.744251150574e-09
   -5.571660653459e-11 1.000000000000e+00 2.107000000000e+03 0.000000000000e+00
    2.400000000000e+00 0.000000000000e+00 5.587935447693e-09 2.600000000000e+01
    2.160000000000e+05 4.000000000000e+00
32 20  5 26 14  0  0.0 2.880971878767e-04 7.389644451905e-12 0.000000000000e+00
    3.000000000000e+01 3.031250000000e+00 4.901275586373e-09 1.364688995083e+00
    9.126961231232e-08 3.990401979536e-03 6.103888154030e-06 5.153708732605e+03
    2.232000000000e+05-4.284083843231e-08-1.128747985844e+00 4.470348358154e-08
    9.564527622452e-01 2.557187500000e+02-2.439431417276e+00-8.114266563201e-09
    2.507247294057e-10 1.000000000000e+00 2.107000000000e+03 0.000000000000e+00
    2.400000000000e+00 0.000000000000e+00 4.656612873077e-10 3.000000000000e+01
    2.160000000000e+05 4.000000000000e+00
30 20  5 26 14  0  0.0-2.283724024892e-04-8.071765478235e-12 0.000000000000e+00
    9.600000000000e+01 2.937500000000e+00 5.138428321879e-09-2.249284012713e+00
   -7.636845111847e-08 4.636989091523e-03 9.078532457352e-06 5.153642200470e+03
    2.232000000000e+05 3.725290298462e-09-4.045566383793e-02-1.192092895508e-07
    9.388700376256e-01 1.967500000000e+02-2.868398483739e+00-8.159268437710e-09
   -3.668009930194e-10 1.000000000000e+00 2.107000000000e+03 0.000000000000e+00
    3.400000000000e+00 0.000000000000e+00 3.725290298462e-09 9.600000000000e+01
    2.160000000000e+05 4.000000000000e+00
22 20  5 26 14  0  0.0-7.808804512024e-04 1.591615728103e-12 0.000000000000e+00
    8.000000000000e+01-5.850000000000e+01 4.900204113170e-09-2.003859805261e-01
   -3.002583980560e-06 7.080651354045e-03 9.708106517792e-06 5.153825561523e+03
    2.232000000000e+05-1.750886440277e-07-2.254871784849e+00-1.098960638046e-07
    9.306475397884e-01 1.798437500000e+02-1.145351880755e+00-8.130338661240e-09
    3.739441477033e-10 1.000000000000e+00 2.107000000000e+03 0.000000000000e+00
    2.400000000000e+00 0.000000000000e+00-1.816079020500e-08 8.000000000000e+01
    2.160000000000e+05 4.000000000000e+00
14 20  5 26 14  0  0.0-1.033348962665e-05 2.614797267597e-12 0.000000000000e+00
    8.900000000000e+01 2.750000000000e+00 4.882703384195e-09 4.500304711069e-01
    2.048909664154e-08 1.145663659554e-02 6.215646862984e-06 5.153638330460e+03
    2.232000000000e+05-1.806765794754e-07-1.041214406919e+00 2.235174179077e-08
    9.601173603304e-01 2.600312500000e+02-1.915180420620e+00-8.220342410257e-09
    1.467918287546e-10 1.000000000000e+00 2.107000000000e+03 0.000000000000e+00
    2.400000000000e+00 0.000000000000e+00-9.778887033463e-09 8.900000000000e+01
    2.160000000000e+05 4.000000000000e+00
21 20  5 26 14  0  0.0 3.587454557419e-06 4.888534022029e-12 0.000000000000e+00
    5.400000000000e+01-1.270000000000e+02 4.435184743247e-09 2.815789411446e+00
   -6.400048732758e-06 2.391329850070e-02 4.198402166367e-06 5.155150171280e+03
    2.232000000000e+05 3.110617399216e-07 3.000611358250e+00 9.499490261078e-08
    9.534256687489e-01 2.919375000000e+02-1.326350950515e+00-7.800682072577e-09
   -3.514432104489e-10 1.000000000000e+00 2.107000000000e+03 0.000000000000e+00
    2.400000000000e+00 0.000000000000e+00-1.024454832077e-08 5.400000000000e+01
    2.160000000000e+05 4.000000000000e+00
20 20  5 26 14  0  0.0 5.276259034872e-04-1.136868377216e-13 0.000000000000e+00
    4.300000000000e+01-6.653125000000e+01 4.725196823414e-09-2.004107222744e+00
   -3.345310688019e-06 5.128732649609e-03 1.074373722076e-05 5.153650913239e+03
    2.232000000000e+05-9.499490261078e-08-2.302319961576e+00 2.235174179077e-08
    9.339885667270e-01 1.592500000000e+02 2.660612744652e+00-8.015333870829e-09
    4.671623163285e-10 1.000000000000e+00 2.107000000000e+03 0.000000000000e+00
    2.400000000000e+00 0.000000000000e+00-8.847564458847e-09 4.300000000000e+01
    2.160000000000e+05 4.000000000000e+00
12 20  5 26 14  0  0.0 1.134574413300e-04-4.433786671143e-12 0.000000000000e+00
    9.600000000000e+01 1.188125000000e+02 4.070883854367e-09-2.911358193732e+00
    6.195157766342e-06 8.082657586783e-03 7.564201951027e-06 5.153693040848e+03
    2.232000000000e+05 1.806765794754e-07 1.042692118026e+00-1.341104507446e-07
    9.783336806219e-01 2.406562500000e+02 1.156251407495e+00-7.697820645128e-09
    2.035799084918e-11 1.000000000000e+00 2.107000000000e+03 0.000000000000e+00
    3.400000000000e+00 0.000000000000e+00-1.210719347000e-08 9.600000000000e+01
    2.160000000000e+05 4.000000000000e+00
17 20  5 26 14  0  0.0 2.708807587624e-04 6.139089236967e-12 0.000000000000e+00
    7.600000000000e+01 2.081250000000e+01 4.234104938895e-09 5.946390147704e-01
    1.102685928345e-06 1.322717196308e-02 2.127140760422e-06 5.153704803467e+03
    2.232000000000e+05-1.583248376846e-07 2.077494010799e+00 9.313225746155e-09
    9.837979839349e-01 3.547500000000e+02-1.642440918394e+00-8.393563911342e-09
   -1.182192100189e-10 1.000000000000e+00 2.107000000000e+03 0.000000000000e+00
    2.400000000000e+00 0.000000000000e+00-1.071020960808e-08 7.600000000000e+01
    2.160000000000e+05 4.000000000000e+00
26 20  5 26 14  0  0.0 2.136589027941e-04 7.162270776462e-12 0.000000000000e+00
    9.000000000000e+01 1.193750000000e+02 4.767341436049e-09 2.513469821227e+00
    6.159767508507e-06 4.733775975183e-03 9.296461939812e-06 5.153626853943e+03
    2.232000000000e+05-1.508742570877e-07 9.384698329783e-01 0.000000000000e+00
    9.468205087718e-01 1.927812500000e+02 2.308556543732e-01-8.010690820284e-09
   -7.143154683922e-11 1.000000000000e+00 2.107000000000e+03 0.000000000000e+00
    2.400000000000e+00 0.000000000000e+00 6.984919309616e-09 9.000000000000e+01
    2.160000000000e+05 4.000000000000e+00
18 20  5 26 14  0  0.0 2.016290090978e-04 1.159605744760e-11 0.000000000000e+00
    2.300000000000e+02-1.220312500000e+02 4.196603376804e-09-8.758439382327e-01
   -6.293877959251e-06 4.985361592844e-04 6.053596735001e-06 5.153730106354e+03
    2.232000000000e+05-9.313225746155e-08 3.091899225305e+00-1.862645149231e-09
    9.640926412540e-01 2.655937500000e+02 2.562592562243e+00-7.997118826385e-09
   -2.450102056585e-10 1.000000000000e+00 2.107000000000e+03 0.000000000000e+00
    2.400000000000e+00 0.000000000000e+00-7.916241884232e-09 9.980000000000e+02
    2.160000000000e+05 4.000000000000e+00
23 20  5 26 14  0  0.0-1.110429875553e-04 3.183231456205e-12 0.000000000000e+00
    9.200000000000e+01 1.028125000000e+01 5.131285167195e-09-1.423835893623e+00
    7.431954145432e-07 1.423241721932e-02 5.444511771202e-06 5.155130397797e+03
    2.232000000000e+05 2.905726432800e-07-1.145666965513e+00 8.009374141693e-08
    9.431439644975e-01 2.567812500000e+02-2.184283466917e+00-8.182126532698e-09
    3.810873023872e-10 1.000000000000e+00 2.107000000000e+03 0.000000000000e+00
    2.400000000000e+00 6.300000000000e+01-2.048909664154e-08 9.200000000000e+01
    2.160000000000e+05 4.000000000000e+00
28 20  5 26 14  0  0.0 7.141199894249e-04-3.296918293927e-12 0.000000000000e+00
    8.400000000000e+01 1.038125000000e+02 4.120171621686e-09 1.413510904551e+00
    5.112960934639e-06 1.840517378878e-02 8.074566721916e-06 5.153669694901e+03
    2.232000000000e+05 6.146728992462e-08 1.065287863527e+00-4.880130290985e-07
    9.775712633099e-01 2.318750000000e+02-1.406450475691e+00-7.823183009831e-09
    4.500187450871e-11 1.000000000000e+00 2.107000000000e+03 0.000000000000e+00
    4.850000000000e+00 0.000000000000e+00-1.117587089539e-08 8.400000000000e+01
    2.160000000000e+05 4.000000000000e+00
